[{"OBJECT_NAME":"SL-8 R/B","OBJECT_ID":"1991-006B","EPOCH":"2026-04-12T20:36:35.364096","MEAN_MOTION":13.7750056,"ECCENTRICITY":0.0021083,"INCLINATION":82.9418,"RA_OF_ASC_NODE":144.6386,"ARG_OF_PERICENTER":301.3512,"MEAN_ANOMALY":231.9272,"EPHEMERIS_TYPE":0,"CLASSIFICATION_TYPE":"U","NORAD_CAT_ID":21088,"ELEMENT_SET_NO":999,"REV_AT_EPOCH":76877,"BSTAR":9.9747e-5,"MEAN_MOTION_DOT":1.14e-6,"MEAN_MOTION_DDOT":0},{"OBJECT_NAME":"OKEAN-3","OBJECT_ID":"1991-039A","EPOCH":"2026-04-12T12:33:00.230112","MEAN_MOTION":15.05008152,"ECCENTRICITY":0.001366,"INCLINATION":82.5152,"RA_OF_ASC_NODE":304.0553,"ARG_OF_PERICENTER":210.5902,"MEAN_ANOMALY":149.453,"EPHEMERIS_TYPE":0,"CLASSIFICATION_TYPE":"U","NORAD_CAT_ID":21397,"ELEMENT_SET_NO":999,"REV_AT_EPOCH":87012,"BSTAR":9.0882e-5,"MEAN_MOTION_DOT":1.32e-5,"MEAN_MOTION_DDOT":0},{"OBJECT_NAME":"COSMOS 2151","OBJECT_ID":"1991-042A","EPOCH":"2026-04-12T20:00:48.883104","MEAN_MOTION":15.00260574,"ECCENTRICITY":0.0011002,"INCLINATION":82.4971,"RA_OF_ASC_NODE":50.7322,"ARG_OF_PERICENTER":310.0138,"MEAN_ANOMALY":50.0119,"EPHEMERIS_TYPE":0,"CLASSIFICATION_TYPE":"U","NORAD_CAT_ID":21422,"ELEMENT_SET_NO":999,"REV_AT_EPOCH":86831,"BSTAR":9.2979e-5,"MEAN_MOTION_DOT":1.192e-5,"MEAN_MOTION_DDOT":0},{"OBJECT_NAME":"SL-14 R/B","OBJECT_ID":"1991-042B","EPOCH":"2026-04-12T12:29:11.334912","MEAN_MOTION":14.81863864,"ECCENTRICITY":0.0018294,"INCLINATION":82.4959,"RA_OF_ASC_NODE":188.4685,"ARG_OF_PERICENTER":127.1955,"MEAN_ANOMALY":233.0932,"EPHEMERIS_TYPE":0,"CLASSIFICATION_TYPE":"U","NORAD_CAT_ID":21423,"ELEMENT_SET_NO":999,"REV_AT_EPOCH":85808,"BSTAR":3.0422e-5,"MEAN_MOTION_DOT":2.65e-6,"MEAN_MOTION_DDOT":0},{"OBJECT_NAME":"ERS-1","OBJECT_ID":"1991-050A","EPOCH":"2026-04-12T18:10:39.679680","MEAN_MOTION":14.39476287,"ECCENTRICITY":0.0033143,"INCLINATION":98.7849,"RA_OF_ASC_NODE":121.8447,"ARG_OF_PERICENTER":101.0133,"MEAN_ANOMALY":259.4785,"EPHEMERIS_TYPE":0,"CLASSIFICATION_TYPE":"U","NORAD_CAT_ID":21574,"ELEMENT_SET_NO":999,"REV_AT_EPOCH":82063,"BSTAR":8.1575e-5,"MEAN_MOTION_DOT":2.1e-6,"MEAN_MOTION_DDOT":0},{"OBJECT_NAME":"ARIANE 40 R/B","OBJECT_ID":"1991-050F","EPOCH":"2026-04-12T20:47:04.598016","MEAN_MOTION":14.4291919,"ECCENTRICITY":0.000256,"INCLINATION":98.1943,"RA_OF_ASC_NODE":153.8078,"ARG_OF_PERICENTER":355.7984,"MEAN_ANOMALY":4.3184,"EPHEMERIS_TYPE":0,"CLASSIFICATION_TYPE":"U","NORAD_CAT_ID":21610,"ELEMENT_SET_NO":999,"REV_AT_EPOCH":82392,"BSTAR":6.5849e-5,"MEAN_MOTION_DOT":1.78e-6,"MEAN_MOTION_DDOT":0},{"OBJECT_NAME":"INTERCOSMOS 25","OBJECT_ID":"1991-086A","EPOCH":"2026-04-12T12:00:05.789664","MEAN_MOTION":12.12111062,"ECCENTRICITY":0.1486035,"INCLINATION":82.5994,"RA_OF_ASC_NODE":289.5624,"ARG_OF_PERICENTER":44.0764,"MEAN_ANOMALY":326.954,"EPHEMERIS_TYPE":0,"CLASSIFICATION_TYPE":"U","NORAD_CAT_ID":21819,"ELEMENT_SET_NO":999,"REV_AT_EPOCH":50078,"BSTAR":0.00014369,"MEAN_MOTION_DOT":7.62e-6,"MEAN_MOTION_DDOT":0},{"OBJECT_NAME":"SL-8 R/B","OBJECT_ID":"1992-008B","EPOCH":"2026-04-12T12:53:25.873728","MEAN_MOTION":13.75970191,"ECCENTRICITY":0.0035427,"INCLINATION":82.9258,"RA_OF_ASC_NODE":242.5953,"ARG_OF_PERICENTER":41.9617,"MEAN_ANOMALY":28.4885,"EPHEMERIS_TYPE":0,"CLASSIFICATION_TYPE":"U","NORAD_CAT_ID":21876,"ELEMENT_SET_NO":999,"REV_AT_EPOCH":71407,"BSTAR":1.6935e-5,"MEAN_MOTION_DOT":3.2e-7,"MEAN_MOTION_DDOT":0},{"OBJECT_NAME":"SL-8 R/B","OBJECT_ID":"1992-020B","EPOCH":"2026-04-12T19:54:32.028768","MEAN_MOTION":13.75550142,"ECCENTRICITY":0.0028558,"INCLINATION":82.9278,"RA_OF_ASC_NODE":128.4083,"ARG_OF_PERICENTER":199.8139,"MEAN_ANOMALY":333.341,"EPHEMERIS_TYPE":0,"CLASSIFICATION_TYPE":"U","NORAD_CAT_ID":21938,"ELEMENT_SET_NO":999,"REV_AT_EPOCH":70582,"BSTAR":-3.592e-5,"MEAN_MOTION_DOT":-2.0e-7,"MEAN_MOTION_DDOT":0},{"OBJECT_NAME":"USA 81","OBJECT_ID":"1992-023A","EPOCH":"2026-04-12T11:16:31.477728","MEAN_MOTION":14.32379313,"ECCENTRICITY":0.000128,"INCLINATION":85.0033,"RA_OF_ASC_NODE":111.9422,"ARG_OF_PERICENTER":79.6553,"MEAN_ANOMALY":280.4783,"EPHEMERIS_TYPE":0,"CLASSIFICATION_TYPE":"U","NORAD_CAT_ID":21949,"ELEMENT_SET_NO":999,"REV_AT_EPOCH":9962,"BSTAR":4.8408e-5,"MEAN_MOTION_DOT":1.51e-6,"MEAN_MOTION_DDOT":0},{"OBJECT_NAME":"COSMOS 2219","OBJECT_ID":"1992-076A","EPOCH":"2026-04-12T19:53:44.277216","MEAN_MOTION":14.14088351,"ECCENTRICITY":0.0017425,"INCLINATION":71.059,"RA_OF_ASC_NODE":306.7044,"ARG_OF_PERICENTER":153.9497,"MEAN_ANOMALY":206.2506,"EPHEMERIS_TYPE":0,"CLASSIFICATION_TYPE":"U","NORAD_CAT_ID":22219,"ELEMENT_SET_NO":999,"REV_AT_EPOCH":72320,"BSTAR":5.5853e-5,"MEAN_MOTION_DOT":5.9e-7,"MEAN_MOTION_DDOT":0},{"OBJECT_NAME":"SL-16 R/B","OBJECT_ID":"1992-076B","EPOCH":"2026-04-12T19:37:55.041888","MEAN_MOTION":14.16865042,"ECCENTRICITY":0.001137,"INCLINATION":70.9976,"RA_OF_ASC_NODE":116.4847,"ARG_OF_PERICENTER":34.6135,"MEAN_ANOMALY":137.7652,"EPHEMERIS_TYPE":0,"CLASSIFICATION_TYPE":"U","NORAD_CAT_ID":22220,"ELEMENT_SET_NO":999,"REV_AT_EPOCH":72666,"BSTAR":0.0001589,"MEAN_MOTION_DOT":2.71e-6,"MEAN_MOTION_DDOT":0},{"OBJECT_NAME":"COSMOS 2221","OBJECT_ID":"1992-080A","EPOCH":"2026-04-12T19:26:41.832960","MEAN_MOTION":14.96353994,"ECCENTRICITY":0.0015637,"INCLINATION":82.5025,"RA_OF_ASC_NODE":246.3872,"ARG_OF_PERICENTER":79.6351,"MEAN_ANOMALY":280.6633,"EPHEMERIS_TYPE":0,"CLASSIFICATION_TYPE":"U","NORAD_CAT_ID":22236,"ELEMENT_SET_NO":999,"REV_AT_EPOCH":78589,"BSTAR":0.0001277,"MEAN_MOTION_DOT":1.474e-5,"MEAN_MOTION_DDOT":0},{"OBJECT_NAME":"SL-16 R/B","OBJECT_ID":"1992-093B","EPOCH":"2026-04-12T19:15:28.688832","MEAN_MOTION":14.1545398,"ECCENTRICITY":0.0006527,"INCLINATION":71.0203,"RA_OF_ASC_NODE":292.6548,"ARG_OF_PERICENTER":259.8675,"MEAN_ANOMALY":100.1712,"EPHEMERIS_TYPE":0,"CLASSIFICATION_TYPE":"U","NORAD_CAT_ID":22285,"ELEMENT_SET_NO":999,"REV_AT_EPOCH":71798,"BSTAR":-7.6235e-5,"MEAN_MOTION_DOT":-1.97e-6,"MEAN_MOTION_DDOT":0},{"OBJECT_NAME":"COSMOS 2228","OBJECT_ID":"1992-094A","EPOCH":"2026-04-12T19:17:14.754336","MEAN_MOTION":14.97374029,"ECCENTRICITY":0.0017956,"INCLINATION":82.5205,"RA_OF_ASC_NODE":204.6503,"ARG_OF_PERICENTER":182.7547,"MEAN_ANOMALY":177.358,"EPHEMERIS_TYPE":0,"CLASSIFICATION_TYPE":"U","NORAD_CAT_ID":22286,"ELEMENT_SET_NO":999,"REV_AT_EPOCH":78116,"BSTAR":0.00012692,"MEAN_MOTION_DOT":1.505e-5,"MEAN_MOTION_DDOT":0},{"OBJECT_NAME":"SL-16 R/B","OBJECT_ID":"1993-016B","EPOCH":"2026-04-12T20:18:38.574720","MEAN_MOTION":14.15313536,"ECCENTRICITY":0.0012626,"INCLINATION":71.0065,"RA_OF_ASC_NODE":143.4461,"ARG_OF_PERICENTER":271.1014,"MEAN_ANOMALY":88.8662,"EPHEMERIS_TYPE":0,"CLASSIFICATION_TYPE":"U","NORAD_CAT_ID":22566,"ELEMENT_SET_NO":999,"REV_AT_EPOCH":70700,"BSTAR":7.4174e-5,"MEAN_MOTION_DOT":9.7e-7,"MEAN_MOTION_DDOT":0},{"OBJECT_NAME":"COSMOS 2242","OBJECT_ID":"1993-024A","EPOCH":"2026-04-12T19:13:04.871712","MEAN_MOTION":14.96707467,"ECCENTRICITY":0.0016158,"INCLINATION":82.5189,"RA_OF_ASC_NODE":234.0815,"ARG_OF_PERICENTER":185.8588,"MEAN_ANOMALY":174.2448,"EPHEMERIS_TYPE":0,"CLASSIFICATION_TYPE":"U","NORAD_CAT_ID":22626,"ELEMENT_SET_NO":999,"REV_AT_EPOCH":78549,"BSTAR":0.00012809,"MEAN_MOTION_DOT":1.492e-5,"MEAN_MOTION_DDOT":0}]
