SL-8 R/B                
1 21088U 91006B   26102.85874264  .00000114  00000+0  99747-4 0  9995
2 21088  82.9418 144.6386 0021083 301.3512 231.9272 13.77500560768779
OKEAN-3                 
1 21397U 91039A   26102.52291933  .00001320  00000+0  90882-4 0  9995
2 21397  82.5152 304.0553 0013660 210.5902 149.4530 15.05008152870123
COSMOS 2151             
1 21422U 91042A   26102.83389911  .00001192  00000+0  92979-4 0  9992
2 21422  82.4971  50.7322 0011002 310.0138  50.0119 15.00260574868315
SL-14 R/B               
1 21423U 91042B   26102.52027008  .00000265  00000+0  30422-4 0  9990
2 21423  82.4959 188.4685 0018294 127.1955 233.0932 14.81863864858085
ERS-1                   
1 21574U 91050A   26102.75740370  .00000210  00000+0  81575-4 0  9990
2 21574  98.7849 121.8447 0033143 101.0133 259.4785 14.39476287820636
ARIANE 40 R/B           
1 21610U 91050F   26102.86602544  .00000178  00000+0  65849-4 0  9992
2 21610  98.1943 153.8078 0002560 355.7984   4.3184 14.42919190823926
INTERCOSMOS 25          
1 21819U 91086A   26102.50006701  .00000762  00000+0  14369-3 0  9995
2 21819  82.5994 289.5624 1486035  44.0764 326.9540 12.12111062500784
SL-8 R/B                
1 21876U 92008B   26102.53710502  .00000032  00000+0  16935-4 0  9999
2 21876  82.9258 242.5953 0035427  41.9617  28.4885 13.75970191714076
SL-8 R/B                
1 21938U 92020B   26102.82953737 -.00000020  00000+0 -35920-4 0  9997
2 21938  82.9278 128.4083 0028558 199.8139 333.3410 13.75550142705827
USA 81                  
1 21949U 92023A   26102.46980877  .00000151  00000+0  48408-4 0  9995
2 21949  85.0033 111.9422 0001280  79.6553 280.4783 14.32379313 99626
COSMOS 2219             
1 22219U 92076A   26102.82898469  .00000059  00000+0  55853-4 0  9998
2 22219  71.0590 306.7044 0017425 153.9497 206.2506 14.14088351723201
SL-16 R/B               
1 22220U 92076B   26102.81799817  .00000271  00000+0  15890-3 0  9998
2 22220  70.9976 116.4847 0011370  34.6135 137.7652 14.16865042726668
COSMOS 2221             
1 22236U 92080A   26102.81020640  .00001474  00000+0  12770-3 0  9991
2 22236  82.5025 246.3872 0015637  79.6351 280.6633 14.96353994785892
SL-16 R/B               
1 22285U 92093B   26102.80241538 -.00000197  00000+0 -76235-4 0  9999
2 22285  71.0203 292.6548 0006527 259.8675 100.1712 14.15453980717986
COSMOS 2228             
1 22286U 92094A   26102.80364299  .00001505  00000+0  12692-3 0  9999
2 22286  82.5205 204.6503 0017956 182.7547 177.3580 14.97374029781166
SL-16 R/B               
1 22566U 93016B   26102.84627980  .00000097  00000+0  74174-4 0  9997
2 22566  71.0065 143.4461 0012626 271.1014  88.8662 14.15313536707002
COSMOS 2242             
1 22626U 93024A   26102.80075083  .00001492  00000+0  12809-3 0  9996
2 22626  82.5189 234.0815 0016158 185.8588 174.2448 14.96707467785494
